IRIDIUM 33 DEB          
1 39778U 97051AAK 26088.18398138  .00004875  00000+0  11207-2 0  9997
2 39778  86.3826 356.9914 0009190  38.6134 321.5729 14.55265904622404
IRIDIUM 33 DEB          
1 39781U 97051AAN 26084.62986015  .00010760  00000+0  41065-2 0  9998
2 39781  86.3742 215.5276 0167081 301.4320  68.8545 14.23293704 95694
IRIDIUM 33 DEB          
1 40996U 97051ABJ 26077.43080010  .00026572  00000+0  18485-2 0  9997
2 40996  86.3493 316.3879 0009754  60.9534  60.8654 15.05331375639237
IRIDIUM 33 DEB          
1 40998U 97051ABL 26079.55472515  .00001671  00000+0  46851-3 0  9991
2 40998  86.3880  11.8556 0009585 105.6376  20.7682 14.45504117 80944
IRIDIUM 33 DEB          
1 46435U 97051ABN 26087.91308031  .00015545  00000+0  41655-2 0  9994
2 46435  86.2817 148.0210 0190440 285.3968 254.7808 14.37881805 94395
IRIDIUM 33 DEB          
1 46734U 97051ABR 26084.40530841  .00002483  00000+0  73414-3 0  9999
2 46734  86.2626 317.7811 0040390 356.4504 184.0485 14.42665972644906
IRIDIUM 33 DEB          
1 46965U 97051ABX 26087.84529980  .00002976  00000+0  59914-3 0  9994
2 46965  86.3296 293.6138 0018133 331.1555  43.7359 14.61165916638173
IRIDIUM 33 DEB          
1 46971U 97051ACD 26071.90396128  .00027757  00000+0  19648-2 0  9990
2 46971  86.3309 290.4510 0007480 347.9303  75.0890 15.04692078655835
IRIDIUM 33 DEB          
1 46972U 97051ACE 26080.03549722  .00001845  00000+0  45931-3 0  9990
2 46972  86.3927 357.0817 0010612 126.4910 247.8233 14.51201793629985
IRIDIUM 33 DEB          
1 46974U 97051ACG 26085.19477861  .00007790  00000+0  20432-2 0  9991
2 46974  86.2979  59.9948 0086952 201.3478 158.4090 14.46873355590032
